{"type": "FeatureCollection", "features": [ {"type": "Feature", "properties": {"norad_id": 40701, "name": "GAOFEN-8", "group": "resource", "lat": -20.492801091592415, "lon": 176.94204755555157, "alt_km": 460.177739083143, "timestamp": "2025-12-21T11:31:42.499089+00:00", "meta": {"OBJECT_NAME": "GAOFEN-8", "OBJECT_ID": "2015-030A", "EPOCH": "2025-12-21T05:22:32.258208", "MEAN_MOTION": 15.38801185, "ECCENTRICITY": 0.0012002, "INCLINATION": 97.6904, "RA_OF_ASC_NODE": 173.7783, "ARG_OF_PERICENTER": 109.7553, "MEAN_ANOMALY": 250.4986, "EPHEMERIS_TYPE": 0, "CLASSIFICATION_TYPE": "U", "NORAD_CAT_ID": 40701, "ELEMENT_SET_NO": 999, "REV_AT_EPOCH": 58401, "BSTAR": 9.4475e-05, "MEAN_MOTION_DOT": 3.541e-05, "MEAN_MOTION_DDOT": 0}, "tle": {"line1": "1 40701U 15030A   25355.22398447  .00003541  00000+0  94475-4 0  9995", "line2": "2 40701  97.6904 173.7783 0012002 109.7553 250.4986 15.38801185584012"}}, "geometry": {"type": "Point", "coordinates": [176.94204755555157, -20.492801091592415]}}, {"type": "Feature", "properties": {"norad_id": 40718, "name": "CARBONITE 1 (CBNT-1)", "group": "resource", "lat": -45.83917568825013, "lon": -175.9168770621969, "alt_km": 637.2616686615438, "timestamp": "2025-12-21T11:31:42.499099+00:00", "meta": {"OBJECT_NAME": "CARBONITE 1 (CBNT-1)", "OBJECT_ID": "2015-032D", "EPOCH": "2025-12-21T03:38:23.809344", "MEAN_MOTION": 14.82780987, "ECCENTRICITY": 0.0014996, "INCLINATION": 97.6395, "RA_OF_ASC_NODE": 175.8247, "ARG_OF_PERICENTER": 153.8502, "MEAN_ANOMALY": 206.3473, "EPHEMERIS_TYPE": 0, "CLASSIFICATION_TYPE": "U", "NORAD_CAT_ID": 40718, "ELEMENT_SET_NO": 999, "REV_AT_EPOCH": 56295, "BSTAR": 0.00023401, "MEAN_MOTION_DOT": 1.845e-05, "MEAN_MOTION_DDOT": 0}, "tle": {"line1": "1 40718U 15032D   25355.15166446  .00001845  00000+0  23401-3 0  9994", "line2": "2 40718  97.6395 175.8247 0014996 153.8502 206.3473 14.82780987562954"}}, "geometry": {"type": "Point", "coordinates": [-175.9168770621969, -45.83917568825013]}}, {"type": "Feature", "properties": {"norad_id": 40878, "name": "YAOGAN-27", "group": "resource", "lat": 5.017029047124221, "lon": 165.6015264645245, "alt_km": 1201.8955679324545, "timestamp": "2025-12-21T11:31:42.499110+00:00", "meta": {"OBJECT_NAME": "YAOGAN-27", "OBJECT_ID": "2015-040A", "EPOCH": "2025-12-21T05:10:07.480704", "MEAN_MOTION": 13.16059429, "ECCENTRICITY": 0.0007576, "INCLINATION": 100.1006, "RA_OF_ASC_NODE": 344.452, "ARG_OF_PERICENTER": 265.8217, "MEAN_ANOMALY": 94.2031, "EPHEMERIS_TYPE": 0, "CLASSIFICATION_TYPE": "U", "NORAD_CAT_ID": 40878, "ELEMENT_SET_NO": 999, "REV_AT_EPOCH": 49425, "BSTAR": -0.0009038, "MEAN_MOTION_DOT": -3.86e-06, "MEAN_MOTION_DDOT": 0}, "tle": {"line1": "1 40878U 15040A   25355.21536436 -.00000386  00000+0 -90380-3 0  9998", "line2": "2 40878 100.1006 344.4520 0007576 265.8217  94.2031 13.16059429494258"}}, "geometry": {"type": "Point", "coordinates": [165.6015264645245, 5.017029047124221]}}, {"type": "Feature", "properties": {"norad_id": 40894, "name": "GAOFEN-9 01", "group": "resource", "lat": -43.464345293012336, "lon": -153.26376157004606, "alt_km": 643.6428242822758, "timestamp": "2025-12-21T11:31:42.499120+00:00", "meta": {"OBJECT_NAME": "GAOFEN-9 01", "OBJECT_ID": "2015-047A", "EPOCH": "2025-12-21T05:39:40.074336", "MEAN_MOTION": 14.82441013, "ECCENTRICITY": 0.0027699, "INCLINATION": 97.6531, "RA_OF_ASC_NODE": 33.8241, "ARG_OF_PERICENTER": 6.9453, "MEAN_ANOMALY": 353.2139, "EPHEMERIS_TYPE": 0, "CLASSIFICATION_TYPE": "U", "NORAD_CAT_ID": 40894, "ELEMENT_SET_NO": 999, "REV_AT_EPOCH": 55382, "BSTAR": 0.00010259, "MEAN_MOTION_DOT": 7.76e-06, "MEAN_MOTION_DDOT": 0}, "tle": {"line1": "1 40894U 15047A   25355.23588049  .00000776  00000+0  10259-3 0  9990", "line2": "2 40894  97.6531  33.8241 0027699   6.9453 353.2139 14.82441013553826"}}, "geometry": {"type": "Point", "coordinates": [-153.26376157004606, -43.464345293012336]}}, {"type": "Feature", "properties": {"norad_id": 41026, "name": "YAOGAN-28", "group": "resource", "lat": -73.03432628839464, "lon": -71.75189482222348, "alt_km": 507.6369767909946, "timestamp": "2025-12-21T11:31:42.499131+00:00", "meta": {"OBJECT_NAME": "YAOGAN-28", "OBJECT_ID": "2015-064A", "EPOCH": "2025-12-21T04:06:52.202592", "MEAN_MOTION": 15.24477569, "ECCENTRICITY": 0.0012639, "INCLINATION": 97.2813, "RA_OF_ASC_NODE": 132.7264, "ARG_OF_PERICENTER": 99.2317, "MEAN_ANOMALY": 261.0351, "EPHEMERIS_TYPE": 0, "CLASSIFICATION_TYPE": "U", "NORAD_CAT_ID": 41026, "ELEMENT_SET_NO": 999, "REV_AT_EPOCH": 56353, "BSTAR": 0.00021987, "MEAN_MOTION_DOT": 5.343e-05, "MEAN_MOTION_DDOT": 0}, "tle": {"line1": "1 41026U 15064A   25355.17143753  .00005343  00000+0  21987-3 0  9994", "line2": "2 41026  97.2813 132.7264 0012639  99.2317 261.0351 15.24477569563532"}}, "geometry": {"type": "Point", "coordinates": [-71.75189482222348, -73.03432628839464]}}, {"type": "Feature", "properties": {"norad_id": 41038, "name": "YAOGAN-29", "group": "resource", "lat": 52.752409174751, "lon": -150.6322713484841, "alt_km": 614.9912114557928, "timestamp": "2025-12-21T11:31:42.499142+00:00", "meta": {"OBJECT_NAME": "YAOGAN-29", "OBJECT_ID": "2015-069A", "EPOCH": "2025-12-21T04:28:56.952192", "MEAN_MOTION": 14.8289214, "ECCENTRICITY": 5.79e-05, "INCLINATION": 98.0209, "RA_OF_ASC_NODE": 18.3858, "ARG_OF_PERICENTER": 170.9636, "MEAN_ANOMALY": 189.1588, "EPHEMERIS_TYPE": 0, "CLASSIFICATION_TYPE": "U", "NORAD_CAT_ID": 41038, "ELEMENT_SET_NO": 999, "REV_AT_EPOCH": 54424, "BSTAR": 5.9725e-05, "MEAN_MOTION_DOT": 4.3e-06, "MEAN_MOTION_DDOT": 0}, "tle": {"line1": "1 41038U 15069A   25355.18677028  .00000430  00000+0  59725-4 0  9994", "line2": "2 41038  98.0209  18.3858 0000579 170.9636 189.1588 14.82892140544240"}}, "geometry": {"type": "Point", "coordinates": [-150.6322713484841, 52.752409174751]}}, {"type": "Feature", "properties": {"norad_id": 41167, "name": "KENT RIDGE 1", "group": "resource", "lat": -12.80627581768475, "lon": 88.05011813450488, "alt_km": 495.41789203104963, "timestamp": "2025-12-21T11:31:42.499152+00:00", "meta": {"OBJECT_NAME": "KENT RIDGE 1", "OBJECT_ID": "2015-077B", "EPOCH": "2025-12-21T02:20:52.336608", "MEAN_MOTION": 15.21694895, "ECCENTRICITY": 0.0008535, "INCLINATION": 14.9784, "RA_OF_ASC_NODE": 149.1191, "ARG_OF_PERICENTER": 249.0242, "MEAN_ANOMALY": 110.9166, "EPHEMERIS_TYPE": 0, "CLASSIFICATION_TYPE": "U", "NORAD_CAT_ID": 41167, "ELEMENT_SET_NO": 999, "REV_AT_EPOCH": 55391, "BSTAR": 0.00011768, "MEAN_MOTION_DOT": 3.496e-05, "MEAN_MOTION_DDOT": 0}, "tle": {"line1": "1 41167U 15077B   25355.09782797  .00003496  00000+0  11768-3 0  9995", "line2": "2 41167  14.9784 149.1191 0008535 249.0242 110.9166 15.21694895553911"}}, "geometry": {"type": "Point", "coordinates": [88.05011813450488, -12.80627581768475]}}, {"type": "Feature", "properties": {"norad_id": 41194, "name": "GAOFEN-4", "group": "resource", "lat": -0.17875359037877417, "lon": 8.930473670439996, "alt_km": 35797.98097138152, "timestamp": "2025-12-21T11:31:42.499167+00:00", "meta": {"OBJECT_NAME": "GAOFEN-4", "OBJECT_ID": "2015-083A", "EPOCH": "2025-12-19T15:27:26.627616", "MEAN_MOTION": 1.00273138, "ECCENTRICITY": 0.0002945, "INCLINATION": 0.1878, "RA_OF_ASC_NODE": 81.7841, "ARG_OF_PERICENTER": 93.4275, "MEAN_ANOMALY": 250.8523, "EPHEMERIS_TYPE": 0, "CLASSIFICATION_TYPE": "U", "NORAD_CAT_ID": 41194, "ELEMENT_SET_NO": 999, "REV_AT_EPOCH": 3672, "BSTAR": 0, "MEAN_MOTION_DOT": -3.11e-06, "MEAN_MOTION_DDOT": 0}, "tle": {"line1": "1 41194U 15083A   25353.64405819 -.00000311  00000+0  00000+0 0  9995", "line2": "2 41194   0.1878  81.7841 0002945  93.4275 250.8523  1.00273138 36722"}}, "geometry": {"type": "Point", "coordinates": [8.930473670439996, -0.17875359037877417]}}, {"type": "Feature", "properties": {"norad_id": 41240, "name": "JASON-3", "group": "resource", "lat": 32.29322017399353, "lon": -56.87289799810428, "alt_km": 1311.4069619046268, "timestamp": "2025-12-21T11:31:42.499179+00:00", "meta": {"OBJECT_NAME": "JASON-3", "OBJECT_ID": "2016-002A", "EPOCH": "2025-12-21T03:19:31.997856", "MEAN_MOTION": 12.87626877, "ECCENTRICITY": 0.0007231, "INCLINATION": 66.04, "RA_OF_ASC_NODE": 140.1664, "ARG_OF_PERICENTER": 271.3244, "MEAN_ANOMALY": 88.6947, "EPHEMERIS_TYPE": 0, "CLASSIFICATION_TYPE": "U", "NORAD_CAT_ID": 41240, "ELEMENT_SET_NO": 999, "REV_AT_EPOCH": 46432, "BSTAR": -2.6999e-05, "MEAN_MOTION_DOT": -6.9e-07, "MEAN_MOTION_DDOT": 0}, "tle": {"line1": "1 41240U 16002A   25355.13856479 -.00000069  00000+0 -26999-4 0  9998", "line2": "2 41240  66.0400 140.1664 0007231 271.3244  88.6947 12.87626877464322"}}, "geometry": {"type": "Point", "coordinates": [-56.87289799810428, 32.29322017399353]}}, {"type": "Feature", "properties": {"norad_id": 41335, "name": "SENTINEL-3A", "group": "resource", "lat": -41.05557640053623, "lon": -127.23061887621587, "alt_km": 809.5880468538353, "timestamp": "2025-12-21T11:31:42.499190+00:00", "meta": {"OBJECT_NAME": "SENTINEL-3A", "OBJECT_ID": "2016-011A", "EPOCH": "2025-12-21T03:45:39.140064", "MEAN_MOTION": 14.26733658, "ECCENTRICITY": 9.03e-05, "INCLINATION": 98.6303, "RA_OF_ASC_NODE": 60.0517, "ARG_OF_PERICENTER": 94.6325, "MEAN_ANOMALY": 265.4958, "EPHEMERIS_TYPE": 0, "CLASSIFICATION_TYPE": "U", "NORAD_CAT_ID": 41335, "ELEMENT_SET_NO": 999, "REV_AT_EPOCH": 51267, "BSTAR": 5.7339e-05, "MEAN_MOTION_DOT": 9.5e-07, "MEAN_MOTION_DDOT": 0}, "tle": {"line1": "1 41335U 16011A   25355.15670301  .00000095  00000+0  57339-4 0  9992", "line2": "2 41335  98.6303  60.0517 0000903  94.6325 265.4958 14.26733658512672"}}, "geometry": {"type": "Point", "coordinates": [-127.23061887621587, -41.05557640053623]}}]}